[{"OBJECT_NAME":"STARLINK-31774","OBJECT_ID":"2024-080X","EPOCH":"2026-03-09T07:30:45.879264","MEAN_MOTION":15.27576945,"ECCENTRICITY":0.00014996,"INCLINATION":43.0047,"RA_OF_ASC_NODE":36.6914,"ARG_OF_PERICENTER":262.6792,"MEAN_ANOMALY":97.3889,"EPHEMERIS_TYPE":0,"CLASSIFICATION_TYPE":"U","NORAD_CAT_ID":59622,"ELEMENT_SET_NO":999,"REV_AT_EPOCH":10451,"BSTAR":-1.138642e-5,"MEAN_MOTION_DOT":-5.76e-6,"MEAN_MOTION_DDOT":0},{"OBJECT_NAME":"PHISAT 2","OBJECT_ID":"2024-149C","EPOCH":"2026-03-09T18:55:12.732384","MEAN_MOTION":15.29548632,"ECCENTRICITY":0.00011753,"INCLINATION":97.3806,"RA_OF_ASC_NODE":148.6498,"ARG_OF_PERICENTER":168.623,"MEAN_ANOMALY":191.5037,"EPHEMERIS_TYPE":0,"CLASSIFICATION_TYPE":"U","NORAD_CAT_ID":60470,"ELEMENT_SET_NO":999,"REV_AT_EPOCH":8679,"BSTAR":0.00031420974,"MEAN_MOTION_DOT":8.925e-5,"MEAN_MOTION_DDOT":0}]
